     3.04           N: GNSS NAV DATA    M: MIXED            RINEX VERSION / TYPE
ssrcrin-15.6.1x                         20250101 034500 UTC PGM / RUN BY / DATE 
    18                                                      LEAP SECONDS        
                                                            END OF HEADER       
E15 2025 01 01 03 40 00-1.483901869506E-04-2.259525899717E-12 0.000000000000E+00
     7.300000000000E+01 1.457187500000E+02 2.719756145903E-09 2.470255194833E+00
     6.888061761856E-06 4.368817899376E-04-2.048909664154E-08 5.440612171173E+03
     2.724000000000E+05 3.539025783539E-08-1.775757324677E+00 8.940696716309E-08
     9.996236195933E-01 3.578750000000E+02-1.181533363173E+00-5.709523538859E-09
     3.060841782060E-10 5.170000000000E+02 2.347000000000E+03
     3.120000000000E+00 0.000000000000E+00 2.561137080193E-09 3.725290298462E-09
     2.734560000000E+05
S36 2025 01 01 03 57 52 0.000000000000E+00 0.000000000000E+00 2.734770000000E+05
     4.200368800000E+04 0.000000000000E+00 0.000000000000E+00 6.300000000000E+01
     3.674846960000E+03 0.000000000000E+00 0.000000000000E+00 3.276700000000E+04
     0.000000000000E+00 0.000000000000E+00 0.000000000000E+00 2.460000000000E+02
E15 2025 01 01 03 40 00-1.483915257268E-04-2.245315045002E-12 0.000000000000E+00
     7.300000000000E+01 1.457187500000E+02 2.719756145903E-09 2.470255194833E+00
     6.888061761856E-06 4.368817899376E-04-2.048909664154E-08 5.440612171173E+03
     2.724000000000E+05 3.539025783539E-08-1.775757324677E+00 8.940696716309E-08
     9.996236195933E-01 3.578750000000E+02-1.181533363173E+00-5.709523538859E-09
     3.060841782060E-10 2.580000000000E+02 2.347000000000E+03
     3.120000000000E+00 0.000000000000E+00 2.561137080193E-09 0.000000000000E+00
     2.734900000000E+05
E34 2025 01 01 03 40 00-1.550231245346E-04-2.202682480856E-12 0.000000000000E+00
     7.300000000000E+01 1.568437500000E+02 2.776187067906E-09-2.057792442446E+00
     7.437542080879E-06 1.887875841931E-04 4.284083843231E-08 5.440608554840E+03
     2.724000000000E+05-6.146728992462E-08-1.777551137271E+00 2.235174179077E-08
     9.994971239928E-01 3.570000000000E+02-2.154784218315E+00-5.663807348881E-09
     3.482287908412E-10 5.170000000000E+02 2.347000000000E+03
     3.120000000000E+00 0.000000000000E+00 4.656612873077E-10 2.095475792885E-09
     2.735150000000E+05
E34 2025 01 01 03 40 00-1.550231245346E-04-2.202682480856E-12 0.000000000000E+00
     7.300000000000E+01 1.568437500000E+02 2.776187067906E-09-2.057792442446E+00
     7.437542080879E-06 1.887875841931E-04 4.284083843231E-08 5.440608554840E+03
     2.724000000000E+05-6.146728992462E-08-1.777551137271E+00 2.235174179077E-08
     9.994971239928E-01 3.570000000000E+02-2.154784218315E+00-5.663807348881E-09
     3.482287908412E-10 5.170000000000E+02 2.347000000000E+03
     3.120000000000E+00 0.000000000000E+00 6.984919309616E-10 2.561137080193E-09
     2.735160000000E+05
S23 2025 01 01 03 58 56 0.000000000000E+00 0.000000000000E+00 2.735380000000E+05
     3.866796400000E+04 0.000000000000E+00 0.000000000000E+00 6.300000000000E+01
     1.681330800000E+04 0.000000000000E+00 0.000000000000E+00 3.276700000000E+04
     0.000000000000E+00 0.000000000000E+00 0.000000000000E+00 1.000000000000E+02
E34 2025 01 01 03 40 00-1.550250453874E-04-2.202682480856E-12 0.000000000000E+00
     7.300000000000E+01 1.568437500000E+02 2.776187067906E-09-2.057792442446E+00
     7.437542080879E-06 1.887875841931E-04 4.284083843231E-08 5.440608554840E+03
     2.724000000000E+05-6.146728992462E-08-1.777551137271E+00 2.235174179077E-08
     9.994971239928E-01 3.570000000000E+02-2.154784218315E+00-5.663807348881E-09
     3.482287908412E-10 2.580000000000E+02 2.347000000000E+03
     3.120000000000E+00 0.000000000000E+00 6.984919309616E-10 0.000000000000E+00
     2.735900000000E+05
